{"type": "FeatureCollection", "features": [ {"type": "Feature", "properties": {"norad_id": 38953, "name": "BEIDOU-2 G6 (C02)", "group": "beidou", "lat": 0.23304845744200176, "lon": -108.15665291605815, "alt_km": 35799.5545655997, "timestamp": "2025-12-13T05:42:57.823647+00:00", "meta": {"OBJECT_NAME": "BEIDOU-2 G6 (C02)", "OBJECT_ID": "2012-059A", "EPOCH": "2025-12-11T20:45:33.415776", "MEAN_MOTION": 1.00269666, "ECCENTRICITY": 0.0007739, "INCLINATION": 3.9473, "RA_OF_ASC_NODE": 75.5133, "ARG_OF_PERICENTER": 289.4412, "MEAN_ANOMALY": 111.2689, "EPHEMERIS_TYPE": 0, "CLASSIFICATION_TYPE": "U", "NORAD_CAT_ID": 38953, "ELEMENT_SET_NO": 999, "REV_AT_EPOCH": 4803, "BSTAR": 0, "MEAN_MOTION_DOT": -1.67e-06, "MEAN_MOTION_DDOT": 0}, "tle": {"line1": "1 38953U 12059A   25345.86497009 -.00000167  00000+0  00000+0 0  9990", "line2": "2 38953   3.9473  75.5133 0007739 289.4412 111.2689  1.00269666 48035"}}, "geometry": {"type": "Point", "coordinates": [-108.15665291605815, 0.23304845744200176]}}, {"type": "Feature", "properties": {"norad_id": 40549, "name": "BEIDOU-3S IGSO-1S (C31)", "group": "beidou", "lat": -26.132089121090576, "lon": -87.04183316690155, "alt_km": 35882.46954341738, "timestamp": "2025-12-13T05:42:57.823659+00:00", "meta": {"OBJECT_NAME": "BEIDOU-3S IGSO-1S (C31)", "OBJECT_ID": "2015-019A", "EPOCH": "2025-12-11T20:45:03.352032", "MEAN_MOTION": 1.00292963, "ECCENTRICITY": 0.0036964, "INCLINATION": 49.5542, "RA_OF_ASC_NODE": 297.7211, "ARG_OF_PERICENTER": 195.3449, "MEAN_ANOMALY": 352.9961, "EPHEMERIS_TYPE": 0, "CLASSIFICATION_TYPE": "U", "NORAD_CAT_ID": 40549, "ELEMENT_SET_NO": 999, "REV_AT_EPOCH": 3919, "BSTAR": 0, "MEAN_MOTION_DOT": -1.91e-06, "MEAN_MOTION_DDOT": 0}, "tle": {"line1": "1 40549U 15019A   25345.86462213 -.00000191  00000+0  00000+0 0  9999", "line2": "2 40549  49.5542 297.7211 0036964 195.3449 352.9961  1.00292963 39194"}}, "geometry": {"type": "Point", "coordinates": [-87.04183316690155, -26.132089121090576]}}, {"type": "Feature", "properties": {"norad_id": 40748, "name": "BEIDOU-3S M2S (C58)", "group": "beidou", "lat": 17.418046123265107, "lon": 115.7566376383611, "alt_km": 21537.623625062875, "timestamp": "2025-12-13T05:42:57.823671+00:00", "meta": {"OBJECT_NAME": "BEIDOU-3S M2S (C58)", "OBJECT_ID": "2015-037A", "EPOCH": "2025-12-11T22:15:26.437248", "MEAN_MOTION": 1.8622897, "ECCENTRICITY": 0.00123447, "INCLINATION": 55.0397, "RA_OF_ASC_NODE": 308.4912, "ARG_OF_PERICENTER": 267.8245, "MEAN_ANOMALY": 92.025, "EPHEMERIS_TYPE": 0, "CLASSIFICATION_TYPE": "U", "NORAD_CAT_ID": 40748, "ELEMENT_SET_NO": 999, "REV_AT_EPOCH": 7063, "BSTAR": 0, "MEAN_MOTION_DOT": -8.9e-07, "MEAN_MOTION_DDOT": 0}, "tle": {"line1": "1 40748U 15037A   25345.92738932 -.00000089  00000+0  00000+0 0  9997", "line2": "2 40748  55.0397 308.4912 0012344 267.8245  92.0250  1.86228970 70636"}}, "geometry": {"type": "Point", "coordinates": [115.7566376383611, 17.418046123265107]}}, {"type": "Feature", "properties": {"norad_id": 40749, "name": "BEIDOU-3S M1S (C57)", "group": "beidou", "lat": 3.707937358750515, "lon": -48.984338936323475, "alt_km": 21516.0224714907, "timestamp": "2025-12-13T05:42:57.823683+00:00", "meta": {"OBJECT_NAME": "BEIDOU-3S M1S (C57)", "OBJECT_ID": "2015-037B", "EPOCH": "2025-12-11T14:53:54.000096", "MEAN_MOTION": 1.86253918, "ECCENTRICITY": 0.00034406, "INCLINATION": 55.0364, "RA_OF_ASC_NODE": 308.4915, "ARG_OF_PERICENTER": 358.1692, "MEAN_ANOMALY": 1.8205, "EPHEMERIS_TYPE": 0, "CLASSIFICATION_TYPE": "U", "NORAD_CAT_ID": 40749, "ELEMENT_SET_NO": 999, "REV_AT_EPOCH": 7063, "BSTAR": 0, "MEAN_MOTION_DOT": -8.8e-07, "MEAN_MOTION_DDOT": 0}, "tle": {"line1": "1 40749U 15037B   25345.62076389 -.00000088  00000+0  00000+0 0  9995", "line2": "2 40749  55.0364 308.4915 0003440 358.1692   1.8205  1.86253918 70639"}}, "geometry": {"type": "Point", "coordinates": [-48.984338936323475, 3.707937358750515]}}, {"type": "Feature", "properties": {"norad_id": 40938, "name": "BEIDOU-3S IGSO-2S (C56)", "group": "beidou", "lat": 2.245260279291527, "lon": -97.09784774846383, "alt_km": 36043.26814014384, "timestamp": "2025-12-13T05:42:57.823700+00:00", "meta": {"OBJECT_NAME": "BEIDOU-3S IGSO-2S (C56)", "OBJECT_ID": "2015-053A", "EPOCH": "2025-12-11T20:42:15.107040", "MEAN_MOTION": 1.00269874, "ECCENTRICITY": 0.00609594, "INCLINATION": 49.5118, "RA_OF_ASC_NODE": 261.0153, "ARG_OF_PERICENTER": 188.7908, "MEAN_ANOMALY": 37.5981, "EPHEMERIS_TYPE": 0, "CLASSIFICATION_TYPE": "U", "NORAD_CAT_ID": 40938, "ELEMENT_SET_NO": 999, "REV_AT_EPOCH": 3747, "BSTAR": 0, "MEAN_MOTION_DOT": -1.57e-06, "MEAN_MOTION_DDOT": 0}, "tle": {"line1": "1 40938U 15053A   25345.86267485 -.00000157  00000+0  00000+0 0  9995", "line2": "2 40938  49.5118 261.0153 0060959 188.7908  37.5981  1.00269874 37473"}}, "geometry": {"type": "Point", "coordinates": [-97.09784774846383, 2.245260279291527]}}, {"type": "Feature", "properties": {"norad_id": 41434, "name": "BEIDOU-2 IGSO-6 (C13)", "group": "beidou", "lat": -34.50828999264436, "lon": -116.67352377892276, "alt_km": 35530.79119100624, "timestamp": "2025-12-13T05:42:57.823712+00:00", "meta": {"OBJECT_NAME": "BEIDOU-2 IGSO-6 (C13)", "OBJECT_ID": "2016-021A", "EPOCH": "2025-12-11T15:29:12.615360", "MEAN_MOTION": 1.00293077, "ECCENTRICITY": 0.00608616, "INCLINATION": 59.9644, "RA_OF_ASC_NODE": 39.9082, "ARG_OF_PERICENTER": 229.9753, "MEAN_ANOMALY": 135.9177, "EPHEMERIS_TYPE": 0, "CLASSIFICATION_TYPE": "U", "NORAD_CAT_ID": 41434, "ELEMENT_SET_NO": 999, "REV_AT_EPOCH": 3560, "BSTAR": 0, "MEAN_MOTION_DOT": -1.62e-06, "MEAN_MOTION_DDOT": 0}, "tle": {"line1": "1 41434U 16021A   25345.64528490 -.00000162  00000+0  00000+0 0  9991", "line2": "2 41434  59.9644  39.9082 0060861 229.9753 135.9177  1.00293077 35600"}}, "geometry": {"type": "Point", "coordinates": [-116.67352377892276, -34.50828999264436]}}, {"type": "Feature", "properties": {"norad_id": 41586, "name": "BEIDOU-2 G7 (C03)", "group": "beidou", "lat": -0.9100793803874903, "lon": -81.71574371540814, "alt_km": 35803.81266293101, "timestamp": "2025-12-13T05:42:57.823724+00:00", "meta": {"OBJECT_NAME": "BEIDOU-2 G7 (C03)", "OBJECT_ID": "2016-037A", "EPOCH": "2025-12-12T07:09:24.994080", "MEAN_MOTION": 1.00267359, "ECCENTRICITY": 0.0004472, "INCLINATION": 1.7563, "RA_OF_ASC_NODE": 67.7595, "ARG_OF_PERICENTER": 359.4663, "MEAN_ANOMALY": 231.8039, "EPHEMERIS_TYPE": 0, "CLASSIFICATION_TYPE": "U", "NORAD_CAT_ID": 41586, "ELEMENT_SET_NO": 999, "REV_AT_EPOCH": 501, "BSTAR": 0, "MEAN_MOTION_DOT": -3.43e-06, "MEAN_MOTION_DDOT": 0}, "tle": {"line1": "1 41586U 16037A   25346.29820595 -.00000343  00000+0  00000+0 0  9990", "line2": "2 41586   1.7563  67.7595 0004472 359.4663 231.8039  1.00267359  5015"}}, "geometry": {"type": "Point", "coordinates": [-81.71574371540814, -0.9100793803874903]}}, {"type": "Feature", "properties": {"norad_id": 43001, "name": "BEIDOU-3 M1 (C19)", "group": "beidou", "lat": -52.82877720444686, "lon": 8.605925235048714, "alt_km": 21509.645790555005, "timestamp": "2025-12-13T05:42:57.823736+00:00", "meta": {"OBJECT_NAME": "BEIDOU-3 M1 (C19)", "OBJECT_ID": "2017-069A", "EPOCH": "2025-12-10T02:59:44.237184", "MEAN_MOTION": 1.86231011, "ECCENTRICITY": 0.0009053, "INCLINATION": 56.5252, "RA_OF_ASC_NODE": 69.32, "ARG_OF_PERICENTER": 303.7778, "MEAN_ANOMALY": 56.1585, "EPHEMERIS_TYPE": 0, "CLASSIFICATION_TYPE": "U", "NORAD_CAT_ID": 43001, "ELEMENT_SET_NO": 999, "REV_AT_EPOCH": 5508, "BSTAR": 0, "MEAN_MOTION_DOT": -5.2e-07, "MEAN_MOTION_DDOT": 0}, "tle": {"line1": "1 43001U 17069A   25344.12481756 -.00000052  00000+0  00000+0 0  9999", "line2": "2 43001  56.5252  69.3200 0009053 303.7778  56.1585  1.86231011 55088"}}, "geometry": {"type": "Point", "coordinates": [8.605925235048714, -52.82877720444686]}}, {"type": "Feature", "properties": {"norad_id": 43002, "name": "BEIDOU-3 M2 (C20)", "group": "beidou", "lat": -25.74533013071582, "lon": 50.6800193858587, "alt_km": 21514.110589729633, "timestamp": "2025-12-13T05:42:57.823748+00:00", "meta": {"OBJECT_NAME": "BEIDOU-3 M2 (C20)", "OBJECT_ID": "2017-069B", "EPOCH": "2025-12-09T12:37:45.819264", "MEAN_MOTION": 1.8623055, "ECCENTRICITY": 0.0006254, "INCLINATION": 56.5238, "RA_OF_ASC_NODE": 69.3764, "ARG_OF_PERICENTER": 332.6094, "MEAN_ANOMALY": 27.38, "EPHEMERIS_TYPE": 0, "CLASSIFICATION_TYPE": "U", "NORAD_CAT_ID": 43002, "ELEMENT_SET_NO": 999, "REV_AT_EPOCH": 5506, "BSTAR": 0, "MEAN_MOTION_DOT": -4.8e-07, "MEAN_MOTION_DDOT": 0}, "tle": {"line1": "1 43002U 17069B   25343.52622476 -.00000048  00000+0  00000+0 0  9994", "line2": "2 43002  56.5238  69.3764 0006254 332.6094  27.3800  1.86230550 55065"}}, "geometry": {"type": "Point", "coordinates": [50.6800193858587, -25.74533013071582]}}, {"type": "Feature", "properties": {"norad_id": 43107, "name": "BEIDOU-3 M7 (C27)", "group": "beidou", "lat": 30.77813424859194, "lon": 103.63474045437931, "alt_km": 21521.687580314374, "timestamp": "2025-12-13T05:42:57.823760+00:00", "meta": {"OBJECT_NAME": "BEIDOU-3 M7 (C27)", "OBJECT_ID": "2018-003A", "EPOCH": "2025-12-10T08:14:11.609952", "MEAN_MOTION": 1.86232173, "ECCENTRICITY": 0.00026083, "INCLINATION": 54.4988, "RA_OF_ASC_NODE": 308.8983, "ARG_OF_PERICENTER": 70.7786, "MEAN_ANOMALY": 289.2405, "EPHEMERIS_TYPE": 0, "CLASSIFICATION_TYPE": "U", "NORAD_CAT_ID": 43107, "ELEMENT_SET_NO": 999, "REV_AT_EPOCH": 5383, "BSTAR": 0, "MEAN_MOTION_DOT": -8.2e-07, "MEAN_MOTION_DDOT": 0}, "tle": {"line1": "1 43107U 18003A   25344.34318993 -.00000082  00000+0  00000+0 0  9994", "line2": "2 43107  54.4988 308.8983 0002608  70.7786 289.2405  1.86232173 53837"}}, "geometry": {"type": "Point", "coordinates": [103.63474045437931, 30.77813424859194]}}]}